OBJECT_NAME,OBJECT_ID,EPOCH,MEAN_MOTION,ECCENTRICITY,INCLINATION,RA_OF_ASC_NODE,ARG_OF_PERICENTER,MEAN_ANOMALY,EPHEMERIS_TYPE,CLASSIFICATION_TYPE,NORAD_CAT_ID,ELEMENT_SET_NO,REV_AT_EPOCH,BSTAR,MEAN_MOTION_DOT,MEAN_MOTION_DDOT
STARLINK-37940,2026-145P,2026-07-04T14:00:01.999872,15.75251102,.00020138,97.2849,31.9362,99.1438,80.2370,0,U,69690,999,272,-.45811991E-3,-.68105E-3,0
STARLINK-37961,2026-145Q,2026-07-04T14:00:01.999872,15.75179823,.00013585,97.2846,31.9435,75.6608,121.7814,0,U,69691,999,272,-.14945247E-3,-.22353E-3,0
STARLINK-37787,2026-145R,2026-07-04T14:00:01.999872,15.75645352,.0001341,97.2845,31.9486,64.3332,144.8543,0,U,69692,999,272,-.50387161E-2,-.706504E-2,0
STARLINK-37962,2026-145S,2026-07-04T14:00:01.999872,15.78260299,.00017682,97.2845,31.9510,87.7999,127.5625,0,U,69693,999,272,-.1271952E-1,-.1895781E-1,0
STARLINK-37953,2026-145T,2026-07-04T14:00:01.999872,15.75210298,.00015756,97.2846,31.9461,81.3651,122.0886,0,U,69694,999,272,-.58895477E-3,-.87165E-3,0
STARLINK-37926,2026-145U,2026-07-04T14:00:01.999872,15.75179110,.00012771,97.2844,31.9476,92.9810,114.4719,0,U,69695,999,272,-.2648172E-3,-.39428E-3,0
STARLINK-37959,2026-145V,2026-07-04T14:00:01.999872,15.75419676,.00017406,97.2845,31.9503,74.8098,138.5018,0,U,69696,999,272,-.28374383E-2,-.407883E-2,0
STARLINK-37976,2026-145W,2026-07-04T14:00:01.999872,15.76237066,.00016214,97.2847,31.9571,80.2100,148.5705,0,U,69697,999,272,-.9674858E-2,-.1348845E-1,0
STARLINK-37912,2026-145X,2026-07-04T14:00:01.999872,15.75876074,.00016769,97.2845,31.9601,78.0470,156.9916,0,U,69698,999,272,-.6797503E-2,-.937009E-2,0
STARLINK-37974,2026-145Y,2026-07-04T14:00:01.999872,15.76098595,.00017849,97.2846,31.9616,80.0139,158.8717,0,U,69699,999,272,-.85862799E-2,-.1185119E-1,0
STARLINK-37955,2026-145Z,2026-07-04T14:00:01.999872,15.75668790,.00013493,97.2845,31.9684,67.7813,185.4000,0,U,69700,999,272,-.5524204E-2,-.76966E-2,0
STRIX-8,2026-146A,2026-07-04T09:31:51.150720,15.04359189,.00088358,41.9893,72.9076,314.3037,45.7065,0,U,69701,999,115,.47373174E-3,.6541E-4,0
STARLINK-38055,2026-147A,2026-07-04T14:00:01.999872,15.86174422,.00013461,97.2836,221.3492,118.9106,148.4107,0,U,69704,999,204,-.10956498E-1,-.2293873E-1,0
STARLINK-37898,2026-147B,2026-07-04T14:00:01.999872,15.86394565,.00013324,97.2836,221.3502,102.0468,168.0392,0,U,69705,999,204,-.96108741E-2,-.2071235E-1,0
STARLINK-37970,2026-147C,2026-07-04T14:00:01.999872,15.86673067,.00013592,97.2839,221.3517,105.3530,167.6570,0,U,69706,999,204,-.93813353E-2,-.2052663E-1,0
STARLINK-37975,2026-147D,2026-07-04T14:00:01.999872,15.86942037,.00013543,97.2838,221.3529,109.2478,166.6679,0,U,69707,999,204,-.91739025E-2,-.2036607E-1,0
STARLINK-37972,2026-147E,2026-07-04T14:00:01.999872,15.87201117,.00013219,97.2837,221.3541,108.1355,170.6548,0,U,69708,999,204,-.89564366E-2,-.2016971E-1,0
STARLINK-37963,2026-147F,2026-07-04T14:00:01.999872,15.87460835,.00012777,97.2838,221.3551,106.8021,174.7944,0,U,69709,999,204,-.87787973E-2,-.2004448E-1,0
STARLINK-37969,2026-147G,2026-07-04T14:00:01.999872,15.87713386,.00012282,97.2839,221.3564,104.8542,179.5373,0,U,69710,999,219,-.8592043E-2,-.1988881E-1,0
STARLINK-37956,2026-147H,2026-07-04T14:00:01.999872,15.87978122,.00012827,97.2839,221.3575,105.2946,181.6054,0,U,69711,999,204,-.83496785E-2,-.1917633E-1,0
STARLINK-38043,2026-147J,2026-07-04T14:00:01.999872,15.88199587,.00012601,97.2838,221.3586,127.2131,162.3956,0,U,69712,999,204,-.80829286E-2,-.1883265E-1,0
STARLINK-38020,2026-147K,2026-07-04T14:00:01.999872,15.88446803,.00012961,97.2840,221.3597,106.2441,186.0657,0,U,69713,999,204,-.80066003E-2,-.1887988E-1,0
STARLINK-38059,2026-147L,2026-07-04T14:00:01.999872,15.88692456,.00011936,97.2839,221.3608,108.2523,186.5809,0,U,69714,999,204,-.78639175E-2,-.18789E-1,0
STARLINK-38061,2026-147M,2026-07-04T14:00:01.999872,15.88921034,.0001295,97.2838,221.3619,107.9613,189.4278,0,U,69715,999,213,-.77055837E-2,-.1865024E-1,0
STARLINK-38060,2026-147N,2026-07-04T14:00:01.999872,15.89147770,.0001306,97.2840,221.3630,107.1974,192.6571,0,U,69716,999,213,-.7539045E-2,-.1848624E-1,0
STARLINK-38040,2026-147P,2026-07-04T14:00:01.999872,15.89373295,.00012302,97.2841,221.3641,105.5684,196.6535,0,U,69717,999,213,-.73610602E-2,-.1828977E-1,0
STARLINK-37989,2026-147Q,2026-07-04T14:00:01.999872,15.89584619,.00011586,97.2840,221.3649,106.9987,197.7615,0,U,69718,999,213,-.72362105E-2,-.2086361E-1,.11518252E-2
