STARLINK-37940          
1 69690U 26145P   26185.58335648 -.00068105  00000+0 -45812-3 0  9996
2 69690  97.2849  31.9362 0002013  99.1438  80.2370 15.75251102  2725
STARLINK-37961          
1 69691U 26145Q   26185.58335648 -.00022353  00000+0 -14945-3 0  9995
2 69691  97.2846  31.9435 0001358  75.6608 121.7814 15.75179823  2726
STARLINK-37787          
1 69692U 26145R   26185.58335648 -.00706504  00000+0 -50387-2 0  9992
2 69692  97.2845  31.9486 0001341  64.3332 144.8543 15.75645352  2723
STARLINK-37962          
1 69693U 26145S   26185.58335648 -.01895781  00000+0 -12720-1 0  9998
2 69693  97.2845  31.9510 0001768  87.7999 127.5625 15.78260299  2728
STARLINK-37953          
1 69694U 26145T   26185.58335648 -.00087165  00000+0 -58895-3 0  9992
2 69694  97.2846  31.9461 0001575  81.3651 122.0886 15.75210298  2726
STARLINK-37926          
1 69695U 26145U   26185.58335648 -.00039428  00000+0 -26482-3 0  9999
2 69695  97.2844  31.9476 0001277  92.9810 114.4719 15.75179110  2722
STARLINK-37959          
1 69696U 26145V   26185.58335648 -.00407883  00000+0 -28374-2 0  9995
2 69696  97.2845  31.9503 0001740  74.8098 138.5018 15.75419676  2720
STARLINK-37976          
1 69697U 26145W   26185.58335648 -.01348845  00000+0 -96749-2 0  9990
2 69697  97.2847  31.9571 0001621  80.2100 148.5705 15.76237066  2727
STARLINK-37912          
1 69698U 26145X   26185.58335648 -.00937009  00000+0 -67975-2 0  9995
2 69698  97.2845  31.9601 0001676  78.0470 156.9916 15.75876074  2729
STARLINK-37974          
1 69699U 26145Y   26185.58335648 -.01185119  00000+0 -85863-2 0  9990
2 69699  97.2846  31.9616 0001784  80.0139 158.8717 15.76098595  2727
STARLINK-37955          
1 69700U 26145Z   26185.58335648 -.00769660  00000+0 -55242-2 0  9999
2 69700  97.2845  31.9684 0001349  67.7813 185.4000 15.75668790  2722
STRIX-8                 
1 69701U 26146A   26185.39711980  .00006541  00000+0  47373-3 0  9994
2 69701  41.9893  72.9076 0008835 314.3037  45.7065 15.04359189  1154
STARLINK-38055          
1 69704U 26147A   26185.58335648 -.02293873  00000+0 -10956-1 0  9997
2 69704  97.2836 221.3492 0001346 118.9106 148.4107 15.86174422  2047
STARLINK-37898          
1 69705U 26147B   26185.58335648 -.02071235  00000+0 -96109-2 0  9999
2 69705  97.2836 221.3502 0001332 102.0468 168.0392 15.86394565  2046
STARLINK-37970          
1 69706U 26147C   26185.58335648 -.02052663  00000+0 -93813-2 0  9993
2 69706  97.2839 221.3517 0001359 105.3530 167.6570 15.86673067  2041
STARLINK-37975          
1 69707U 26147D   26185.58335648 -.02036607  00000+0 -91739-2 0  9999
2 69707  97.2838 221.3529 0001354 109.2478 166.6679 15.86942037  2048
STARLINK-37972          
1 69708U 26147E   26185.58335648 -.02016971  00000+0 -89564-2 0  9995
2 69708  97.2837 221.3541 0001321 108.1355 170.6548 15.87201117  2046
STARLINK-37963          
1 69709U 26147F   26185.58335648 -.02004448  00000+0 -87788-2 0  9998
2 69709  97.2838 221.3551 0001277 106.8021 174.7944 15.87460835  2043
STARLINK-37969          
1 69710U 26147G   26185.58335648 -.01988881  00000+0 -85920-2 0  9997
2 69710  97.2839 221.3564 0001228 104.8542 179.5373 15.87713386  2199
STARLINK-37956          
1 69711U 26147H   26185.58335648 -.01917633  00000+0 -83497-2 0  9992
2 69711  97.2839 221.3575 0001282 105.2946 181.6054 15.87978122  2040
STARLINK-38043          
1 69712U 26147J   26185.58335648 -.01883265  00000+0 -80829-2 0  9992
2 69712  97.2838 221.3586 0001260 127.2131 162.3956 15.88199587  2046
STARLINK-38020          
1 69713U 26147K   26185.58335648 -.01887988  00000+0 -80066-2 0  9992
2 69713  97.2840 221.3597 0001296 106.2441 186.0657 15.88446803  2049
STARLINK-38059          
1 69714U 26147L   26185.58335648 -.01878900  00000+0 -78639-2 0  9990
2 69714  97.2839 221.3608 0001193 108.2523 186.5809 15.88692456  2041
STARLINK-38061          
1 69715U 26147M   26185.58335648 -.01865024  00000+0 -77056-2 0  9996
2 69715  97.2838 221.3619 0001295 107.9613 189.4278 15.88921034  2131
STARLINK-38060          
1 69716U 26147N   26185.58335648 -.01848624  00000+0 -75390-2 0  9993
2 69716  97.2840 221.3630 0001306 107.1974 192.6571 15.89147770  2133
STARLINK-38040          
1 69717U 26147P   26185.58335648 -.01828977  00000+0 -73611-2 0  9997
2 69717  97.2841 221.3641 0001230 105.5684 196.6535 15.89373295  2130
STARLINK-37989          
1 69718U 26147Q   26185.58335648 -.02086361  11518-2 -72362-2 0  9993
2 69718  97.2840 221.3649 0001158 106.9987 197.7615 15.89584619  2133
